NORAD_CAT_ID,OBJECT_NAME,OBJECT_TYPE,EPOCH,MEAN_MOTION,ECCENTRICITY,INCLINATION,RA_OF_ASC_NODE,ARG_OF_PERICENTER,MEAN_ANOMALY,BSTAR,MEAN_MOTION_DOT,MEAN_MOTION_DDOT,TLE_LINE0,TLE_LINE1,TLE_LINE2,SEMIMAJOR_AXIS,PERIOD,APOGEE,PERIGEE,DECAYED
52366.0,STARLINK-3808,PAYLOAD,2024-03-25 21:43:31,15.08808181,0.0001373,53.2161,153.42,87.4392,272.6757,-0.00095649,-0.00015465,0.0,0 STARLINK-3808,1 52366U 22045AM  24085.90522824 -.00015465  00000-0 -95649-3 0  9995,2 52366  53.2161 153.4200 0001373  87.4392 272.6757 15.08808181108166,6917.978,95.44,540.792,538.893,0.0
52366.0,STARLINK-3808,PAYLOAD,2024-03-26 04:05:05,15.08799016,0.0001974,53.2156,152.233,88.3388,271.783,-0.0010434,-0.00016837,0.0,0 STARLINK-3808,1 52366U 22045AM  24086.17019877 -.00016837  00000-0 -10434-2 0  9996,2 52366  53.2156 152.2330 0001974  88.3388 271.7830 15.08799016108206,6918.006,95.44,541.236,538.505,0.0
52366.0,STARLINK-3808,PAYLOAD,2024-03-26 10:26:38,15.0878716,0.0001276,53.2138,151.0437,91.6515,268.4623,-0.00092402,-0.00014942,0.0,0 STARLINK-3808,1 52366U 22045AM  24086.43516909 -.00014942  00000-0 -92402-3 0  9994,2 52366  53.2138 151.0437 0001276  91.6515 268.4623 15.08787160108249,6918.042,95.441,540.79,539.024,0.0
52366.0,STARLINK-3808,PAYLOAD,2024-03-26 21:34:20,15.08818561,0.0001581,53.2175,148.9601,94.8359,265.2814,-2.0208e-05,-6.09e-06,0.0,0 STARLINK-3808,1 52366U 22045AM  24086.89884984 -.00000609  00000-0 -20208-4 0  9996,2 52366  53.2175 148.9601 0001581  94.8359 265.2814 15.08818561108313,6917.946,95.439,540.905,538.717,0.0
52366.0,STARLINK-3808,PAYLOAD,2024-03-27 10:17:25,15.08835546,0.0001212,53.2133,146.5828,82.0502,278.0628,0.000475,7.279e-05,0.0,0 STARLINK-3808,1 52366U 22045AM  24087.42877132  .00007279  00000-0  47500-3 0  9994,2 52366  53.2133 146.5828 0001212  82.0502 278.0628 15.08835546108397,6917.894,95.438,540.597,538.921,0.0
52366.0,STARLINK-3808,PAYLOAD,2024-03-27 21:25:07,15.08848878,0.0001227,53.2143,144.5017,83.566,276.5471,0.00097677,0.00015295,0.0,0 STARLINK-3808,1 52366U 22045AM  24087.89245293  .00015295  00000-0  97677-3 0  9999,2 52366  53.2143 144.5017 0001227  83.5660 276.5471 15.08848878108462,6917.853,95.437,540.567,538.869,0.0
52366.0,STARLINK-3808,PAYLOAD,2024-03-28 10:08:12,15.08871166,0.0001509,53.2156,142.1212,94.5499,265.5665,0.00073601,0.00011455,0.0,0 STARLINK-3808,1 52366U 22045AM  24088.42236321  .00011455  00000-0  73601-3 0  9996,2 52366  53.2156 142.1212 0001509  94.5499 265.5665 15.08871166108540,6917.785,95.436,540.694,538.606,0.0
52366.0,STARLINK-3808,PAYLOAD,2024-03-29 03:37:25,15.08863744,0.0001511,53.2159,138.8489,96.0792,264.0373,0.0003204,4.818e-05,0.0,0 STARLINK-3808,1 52366U 22045AM  24089.15099452  .00004818  00000-0  32040-3 0  9996,2 52366  53.2159 138.8489 0001511  96.0792 264.0373 15.08863744108652,6917.808,95.436,540.718,538.628,0.0
52366.0,STARLINK-3808,PAYLOAD,2024-03-29 09:58:57,15.08883412,0.0001544,53.2154,137.66,78.1253,281.9912,0.00094265,0.00014764,0.0,0 STARLINK-3808,1 52366U 22045AM  24089.41594817  .00014764  00000-0  94265-3 0  9998,2 52366  53.2154 137.6600 0001544  78.1253 281.9912 15.08883412108693,6917.748,95.435,540.681,538.545,0.0
52366.0,STARLINK-3808,PAYLOAD,2024-03-30 03:28:12,15.08846811,0.0001364,53.216,134.3905,71.4085,288.7056,-9.3834e-05,-1.781e-05,0.0,0 STARLINK-3808,1 52366U 22045AM  24090.14458935 -.00001781  00000-0 -93834-4 0  9999,2 52366  53.2160 134.3905 0001364  71.4085 288.7056 15.08846811108800,6917.86,95.437,540.668,538.781,0.0
52366.0,STARLINK-3808,PAYLOAD,2024-03-30 09:49:45,15.08841245,0.0001558,53.2161,133.2014,97.603,262.5139,-0.00015803,-2.802e-05,0.0,0 STARLINK-3808,1 52366U 22045AM  24090.40955353 -.00002802  00000-0 -15803-3 0  9998,2 52366  53.2161 133.2014 0001558  97.6030 262.5139 15.08841245108847,6917.877,95.437,540.819,538.664,0.0
52366.0,STARLINK-3808,PAYLOAD,2024-03-30 19:22:03,15.08855874,0.0001521,53.2168,131.4162,95.9281,264.1885,0.00012892,1.765e-05,0.0,0 STARLINK-3808,1 52366U 22045AM  24090.80698496  .00001765  00000-0  12892-3 0  9994,2 52366  53.2168 131.4162 0001521  95.9281 264.1885 15.08855874108903,6917.832,95.437,540.749,538.645,0.0
52366.0,STARLINK-3808,PAYLOAD,2024-03-31 03:18:58,15.08858258,0.0001525,53.2164,129.9303,90.1346,269.9821,-9.8268e-06,-4.45e-06,0.0,0 STARLINK-3808,1 52366U 22045AM  24091.13818009 -.00000445  00000-0 -98268-5 0  9994,2 52366  53.2164 129.9303 0001525  90.1346 269.9821 15.08858258108958,6917.825,95.436,540.745,538.635,0.0
52366.0,STARLINK-3808,PAYLOAD,2024-03-31 09:40:31,15.08862157,0.0001698,53.2173,128.7416,99.5951,260.5233,0.00032359,4.869e-05,0.0,0 STARLINK-3808,1 52366U 22045AM  24091.40313995  .00004869  00000-0  32359-3 0  9997,2 52366  53.2173 128.7416 0001698  99.5951 260.5233 15.08862157108997,6917.813,95.436,540.852,538.503,0.0
52366.0,STARLINK-3808,PAYLOAD,2024-03-31 19:12:50,15.08836327,0.0001381,53.2147,126.9576,94.3054,265.8096,7.8927e-05,9.68e-06,0.0,0 STARLINK-3808,1 52366U 22045AM  24091.80058847  .00000968  00000-0  78927-4 0  9991,2 52366  53.2147 126.9576 0001381  94.3054 265.8096 15.08836327109054,6917.892,95.438,540.712,538.801,0.0
52366.0,STARLINK-3808,PAYLOAD,2024-04-01 12:42:06,15.08820312,0.0001599,53.2166,123.6855,99.6583,260.459,-0.00014362,-2.572e-05,0.0,0 STARLINK-3808,1 52366U 22045AM  24092.52924366 -.00002572  00000-0 -14362-3 0  9996,2 52366  53.2166 123.6855 0001599  99.6583 260.4590 15.08820312109164,6917.941,95.439,540.912,538.699,0.0
52366.0,STARLINK-3808,PAYLOAD,2024-04-02 10:57:31,15.08832036,0.0001389,53.2149,119.5219,102.1823,257.9324,0.00076721,0.00011941,0.0,0 STARLINK-3808,1 52366U 22045AM  24093.45661598  .00011941  00000-0  76721-3 0  9999,2 52366  53.2149 119.5219 0001389 102.1823 257.9324 15.08832036109305,6917.905,95.438,540.731,538.809,0.0
52366.0,STARLINK-3808,PAYLOAD,2024-04-02 18:54:27,15.08840235,0.0001383,53.2149,118.0346,100.8164,259.2984,0.00076516,0.00011911,0.0,0 STARLINK-3808,1 52366U 22045AM  24093.78781643  .00011911  00000-0  76516-3 0  9998,2 52366  53.2149 118.0346 0001383 100.8164 259.2984 15.08840235109359,6917.88,95.438,540.701,538.788,0.0
52366.0,STARLINK-3808,PAYLOAD,2024-04-03 10:48:18,15.08855942,0.0001389,53.2151,115.0608,99.9304,260.1845,0.00075098,0.00011689,0.0,0 STARLINK-3808,1 52366U 22045AM  24094.45021215  .00011689  00000-0  75098-3 0  9991,2 52366  53.2151 115.0608 0001389  99.9304 260.1845 15.08855942109459,6917.832,95.437,540.658,538.736,0.0
52366.0,STARLINK-3808,PAYLOAD,2024-04-03 18:45:13,15.08850203,0.0001383,53.2149,113.5731,99.7473,260.3675,0.00035477,5.364e-05,0.0,0 STARLINK-3808,1 52366U 22045AM  24094.78141139  .00005364  00000-0  35477-3 0  9995,2 52366  53.2149 113.5731 0001383  99.7473 260.3675 15.08850203109509,6917.849,95.437,540.671,538.757,0.0
52366.0,STARLINK-3808,PAYLOAD,2024-04-04 07:28:18,15.08849424,0.0001407,53.2154,111.1941,98.3476,261.7676,0.00021523,3.14e-05,0.0,0 STARLINK-3808,1 52366U 22045AM  24095.31132928  .00003140  00000-0  21523-3 0  9998,2 52366  53.2154 111.1941 0001407  98.3476 261.7676 15.08849424109584,6917.852,95.437,540.69,538.743,0.0
52366.0,STARLINK-3808,PAYLOAD,2024-04-04 18:36:00,15.08849274,0.0001375,53.2153,109.1122,98.4505,261.6643,0.00018976,2.734e-05,0.0,0 STARLINK-3808,1 52366U 22045AM  24095.77500794  .00002734  00000-0  18976-3 0  9994,2 52366  53.2153 109.1122 0001375  98.4505 261.6643 15.08849274109653,6917.852,95.437,540.668,538.766,0.0
52366.0,STARLINK-3808,PAYLOAD,2024-04-05 10:29:51,15.0885136,0.0001439,53.2153,106.1394,91.4536,268.6621,-6.2273e-06,-3.87e-06,0.0,0 STARLINK-3808,1 52366U 22045AM  24096.43740405 -.00000387  00000-0 -62273-5 0  9998,2 52366  53.2153 106.1394 0001439  91.4536 268.6621 15.08851360109752,6917.846,95.437,540.706,538.715,0.0
52366.0,STARLINK-3808,PAYLOAD,2024-04-06 03:59:06,15.08844735,0.0001406,53.2144,102.8677,91.5844,268.5309,6.4812e-05,7.44e-06,0.0,0 STARLINK-3808,1 52366U 22045AM  24097.16604484  .00000744  00000-0  64812-4 0  9990,2 52366  53.2144 102.8677 0001406  91.5844 268.5309 15.08844735109868,6917.866,95.437,540.704,538.758,0.0
52366.0,STARLINK-3808,PAYLOAD,2024-04-06 07:09:52,15.08846208,0.000137,53.2157,102.273,92.3306,267.7843,7.3725e-05,8.86e-06,0.0,0 STARLINK-3808,1 52366U 22045AM  24097.29852322  .00000886  00000-0  73725-4 0  9990,2 52366  53.2157 102.2730 0001370  92.3306 267.7843 15.08846208109881,6917.861,95.437,540.674,538.779,0.0
52366.0,STARLINK-3808,PAYLOAD,2024-04-06 16:42:11,15.08839901,0.0001356,53.2156,100.489,91.0663,269.0485,1.1841e-05,-9.9e-07,0.0,0 STARLINK-3808,1 52366U 22045AM  24097.69596784 -.00000099  00000-0  11841-4 0  9999,2 52366  53.2156 100.4890 0001356  91.0663 269.0485 15.08839901109949,6917.881,95.438,540.684,538.808,0.0
52366.0,STARLINK-3808,PAYLOAD,2024-04-06 23:03:44,15.08836078,0.0001437,53.2167,99.2996,90.7856,269.33,8.1567e-06,-1.58e-06,0.0,0 STARLINK-3808,1 52366U 22045AM  24097.96093065 -.00000158  00000-0  81567-5 0  9992,2 52366  53.2167  99.2996 0001437  90.7856 269.3300 15.08836078109988,6917.892,95.438,540.751,538.763,0.0
52366.0,STARLINK-3808,PAYLOAD,2024-04-07 07:00:40,15.08834677,0.0001465,53.2172,97.8131,91.0345,269.0815,-1.7633e-05,-5.69e-06,0.0,0 STARLINK-3808,1 52366U 22045AM  24098.29213293 -.00000569  00000-0 -17633-4 0  9995,2 52366  53.2172  97.8131 0001465  91.0345 269.0815 15.08834677110036,6917.897,95.438,540.775,538.748,0.0
52366.0,STARLINK-3808,PAYLOAD,2024-04-07 16:32:58,15.08837049,0.0001449,53.2174,96.0288,90.6195,269.4963,1.1802e-05,-1e-06,0.0,0 STARLINK-3808,1 52366U 22045AM  24098.68957156 -.00000100  00000-0  11802-4 0  9993,2 52366  53.2174  96.0288 0001449  90.6195 269.4963 15.08837049110092,6917.889,95.438,540.757,538.752,0.0
52366.0,STARLINK-3808,PAYLOAD,2024-04-08 06:51:27,15.08840181,0.0001413,53.2171,93.3533,93.339,266.7764,3.9001e-05,3.33e-06,0.0,0 STARLINK-3808,1 52366U 22045AM  24099.28572963  .00000333  00000-0  39001-4 0  9997,2 52366  53.2171  93.3533 0001413  93.3390 266.7764 15.08840181110180,6917.88,95.438,540.722,538.767,0.0
